{
  "type": "FeatureCollection",
  "features": [
    {
      "type": "Feature",
      "properties": {
        "norad_id": 34036,
        "name": "COSMOS 2251 DEB",
        "group": "cosmos-2251-debris",
        "lat": 34.751818834564354,
        "lon": -26.07038579519441,
        "alt_km": 577.3334519305727,
        "timestamp": "2025-12-04T17:48:40.558417+00:00",
        "meta_object_name": "COSMOS 2251 DEB",
        "meta_object_id": "1993-036HX",
        "meta_epoch": "2025-12-03T15:27:13.917312",
        "meta_mean_motion": 14.93800891,
        "meta_eccentricity": 0.00148465,
        "meta_inclination": 74.0198,
        "meta_ra_of_asc_node": 167.609,
        "meta_arg_of_pericenter": 201.8914,
        "meta_mean_anomaly": 158.1638,
        "meta_ephemeris_type": 0,
        "meta_classification_type": "U",
        "meta_norad_cat_id": 34036,
        "meta_element_set_no": 999,
        "meta_rev_at_epoch": 88434,
        "meta_bstar": 0.0048127428,
        "meta_mean_motion_dot": 0.00051513,
        "meta_mean_motion_ddot": 0,
        "tle_line1": "1 34036U 93036HX  25337.64391108  .00051513  00000+0  48127-2 0  9997",
        "tle_line2": "2 34036  74.0198 167.6090 0014846 201.8914 158.1638 14.93800891884346"
      },
      "geometry": {
        "type": "Point",
        "coordinates": [
          -26.07038579519441,
          34.751818834564354
        ]
      }
    },
    {
      "type": "Feature",
      "properties": {
        "norad_id": 34037,
        "name": "COSMOS 2251 DEB",
        "group": "cosmos-2251-debris",
        "lat": 52.558829847140856,
        "lon": -136.84775799282653,
        "alt_km": 733.812100041715,
        "timestamp": "2025-12-04T17:48:40.558428+00:00",
        "meta_object_name": "COSMOS 2251 DEB",
        "meta_object_id": "1993-036HY",
        "meta_epoch": "2025-12-04T07:11:43.472544",
        "meta_mean_motion": 14.34629205,
        "meta_eccentricity": 0.00523609,
        "meta_inclination": 74.0527,
        "meta_ra_of_asc_node": 65.8887,
        "meta_arg_of_pericenter": 118.4584,
        "meta_mean_anomaly": 242.1858,
        "meta_ephemeris_type": 0,
        "meta_classification_type": "U",
        "meta_norad_cat_id": 34037,
        "meta_element_set_no": 999,
        "meta_rev_at_epoch": 87596,
        "meta_bstar": 0.0012107745,
        "meta_mean_motion_dot": 3.452e-05,
        "meta_mean_motion_ddot": 0,
        "tle_line1": "1 34037U 93036HY  25338.29980871  .00003452  00000+0  12108-2 0  9990",
        "tle_line2": "2 34037  74.0527  65.8887 0052360 118.4584 242.1858 14.34629205875964"
      },
      "geometry": {
        "type": "Point",
        "coordinates": [
          -136.84775799282653,
          52.558829847140856
        ]
      }
    },
    {
      "type": "Feature",
      "properties": {
        "norad_id": 34040,
        "name": "COSMOS 2251 DEB",
        "group": "cosmos-2251-debris",
        "lat": 52.27933600010285,
        "lon": -122.76363651566707,
        "alt_km": 993.4152047638227,
        "timestamp": "2025-12-04T17:48:40.558438+00:00",
        "meta_object_name": "COSMOS 2251 DEB",
        "meta_object_id": "1993-036JB",
        "meta_epoch": "2025-12-03T23:41:20.420160",
        "meta_mean_motion": 13.68361466,
        "meta_eccentricity": 0.03428341,
        "meta_inclination": 73.9556,
        "meta_ra_of_asc_node": 80.325,
        "meta_arg_of_pericenter": 35.5129,
        "meta_mean_anomaly": 326.8289,
        "meta_ephemeris_type": 0,
        "meta_classification_type": "U",
        "meta_norad_cat_id": 34040,
        "meta_element_set_no": 999,
        "meta_rev_at_epoch": 83480,
        "meta_bstar": 0.00058612424,
        "meta_mean_motion_dot": 7.34e-06,
        "meta_mean_motion_ddot": 0,
        "tle_line1": "1 34040U 93036JB  25337.98704190  .00000734  00000+0  58612-3 0  9998",
        "tle_line2": "2 34040  73.9556  80.3250 0342834  35.5129 326.8289 13.68361466834800"
      },
      "geometry": {
        "type": "Point",
        "coordinates": [
          -122.76363651566707,
          52.27933600010285
        ]
      }
    },
    {
      "type": "Feature",
      "properties": {
        "norad_id": 34045,
        "name": "COSMOS 2251 DEB",
        "group": "cosmos-2251-debris",
        "lat": -5.678389110083894,
        "lon": 147.09704262288258,
        "alt_km": 794.1770012004836,
        "timestamp": "2025-12-04T17:48:40.558448+00:00",
        "meta_object_name": "COSMOS 2251 DEB",
        "meta_object_id": "1993-036JG",
        "meta_epoch": "2025-12-04T07:22:56.074944",
        "meta_mean_motion": 14.34061589,
        "meta_eccentricity": 0.00253678,
        "meta_inclination": 74.0386,
        "meta_ra_of_asc_node": 326.2611,
        "meta_arg_of_pericenter": 52.3234,
        "meta_mean_anomaly": 50.7812,
        "meta_ephemeris_type": 0,
        "meta_classification_type": "U",
        "meta_norad_cat_id": 34045,
        "meta_element_set_no": 999,
        "meta_rev_at_epoch": 87912,
        "meta_bstar": 0.00018127721,
        "meta_mean_motion_dot": 4.83e-06,
        "meta_mean_motion_ddot": 0,
        "tle_line1": "1 34045U 93036JG  25338.30759346  .00000483  00000+0  18128-3 0  9992",
        "tle_line2": "2 34045  74.0386 326.2611 0025367  52.3234  50.7812 14.34061589879120"
      },
      "geometry": {
        "type": "Point",
        "coordinates": [
          147.09704262288258,
          -5.678389110083894
        ]
      }
    },
    {
      "type": "Feature",
      "properties": {
        "norad_id": 34046,
        "name": "COSMOS 2251 DEB",
        "group": "cosmos-2251-debris",
        "lat": 0.10862597646991133,
        "lon": -154.62542241537187,
        "alt_km": 720.3009378108263,
        "timestamp": "2025-12-04T17:48:40.558458+00:00",
        "meta_object_name": "COSMOS 2251 DEB",
        "meta_object_id": "1993-036JH",
        "meta_epoch": "2025-12-04T05:39:28.474272",
        "meta_mean_motion": 14.46364791,
        "meta_eccentricity": 0.0074838,
        "meta_inclination": 74.0401,
        "meta_ra_of_asc_node": 26.3505,
        "meta_arg_of_pericenter": 112.2943,
        "meta_mean_anomaly": 311.0139,
        "meta_ephemeris_type": 0,
        "meta_classification_type": "U",
        "meta_norad_cat_id": 34046,
        "meta_element_set_no": 999,
        "meta_rev_at_epoch": 87703,
        "meta_bstar": 0.0027339555,
        "meta_mean_motion_dot": 0.00010148,
        "meta_mean_motion_ddot": 0,
        "tle_line1": "1 34046U 93036JH  25338.23574623  .00010148  00000+0  27340-2 0  9992",
        "tle_line2": "2 34046  74.0401  26.3505 0074838 112.2943 311.0139 14.46364791877036"
      },
      "geometry": {
        "type": "Point",
        "coordinates": [
          -154.62542241537187,
          0.10862597646991133
        ]
      }
    },
    {
      "type": "Feature",
      "properties": {
        "norad_id": 34050,
        "name": "COSMOS 2251 DEB",
        "group": "cosmos-2251-debris",
        "lat": 55.787890765025104,
        "lon": 48.57665175611883,
        "alt_km": 766.1969018426626,
        "timestamp": "2025-12-04T17:48:40.558468+00:00",
        "meta_object_name": "COSMOS 2251 DEB",
        "meta_object_id": "1993-036JM",
        "meta_epoch": "2025-12-04T05:48:06.030144",
        "meta_mean_motion": 13.96160202,
        "meta_eccentricity": 0.02146508,
        "meta_inclination": 74.0887,
        "meta_ra_of_asc_node": 24.6291,
        "meta_arg_of_pericenter": 91.1229,
        "meta_mean_anomaly": 335.3632,
        "meta_ephemeris_type": 0,
        "meta_classification_type": "U",
        "meta_norad_cat_id": 34050,
        "meta_element_set_no": 999,
        "meta_rev_at_epoch": 85313,
        "meta_bstar": 0.00097011528,
        "meta_mean_motion_dot": 1.596e-05,
        "meta_mean_motion_ddot": 0,
        "tle_line1": "1 34050U 93036JM  25338.24173646  .00001596  00000+0  97012-3 0  9999",
        "tle_line2": "2 34050  74.0887  24.6291 0214650  91.1229 335.3632 13.96160202853139"
      },
      "geometry": {
        "type": "Point",
        "coordinates": [
          48.57665175611883,
          55.787890765025104
        ]
      }
    },
    {
      "type": "Feature",
      "properties": {
        "norad_id": 34053,
        "name": "COSMOS 2251 DEB",
        "group": "cosmos-2251-debris",
        "lat": -55.51853745933252,
        "lon": -129.90551256852277,
        "alt_km": 1145.570684422244,
        "timestamp": "2025-12-04T17:48:40.558478+00:00",
        "meta_object_name": "COSMOS 2251 DEB",
        "meta_object_id": "1993-036JQ",
        "meta_epoch": "2025-12-04T05:38:24.794016",
        "meta_mean_motion": 13.49140542,
        "meta_eccentricity": 0.04217228,
        "meta_inclination": 73.8444,
        "meta_ra_of_asc_node": 255.8749,
        "meta_arg_of_pericenter": 45.8516,
        "meta_mean_anomaly": 317.646,
        "meta_ephemeris_type": 0,
        "meta_classification_type": "U",
        "meta_norad_cat_id": 34053,
        "meta_element_set_no": 999,
        "meta_rev_at_epoch": 82569,
        "meta_bstar": 0.0014020473,
        "meta_mean_motion_dot": 1.505e-05,
        "meta_mean_motion_ddot": 0,
        "tle_line1": "1 34053U 93036JQ  25338.23500919  .00001505  00000+0  14020-2 0  9995",
        "tle_line2": "2 34053  73.8444 255.8749 0421722  45.8516 317.6460 13.49140542825694"
      },
      "geometry": {
        "type": "Point",
        "coordinates": [
          -129.90551256852277,
          -55.51853745933252
        ]
      }
    }
  ]
}